[{"OBJECT_NAME":"XINGYUN-2 02","OBJECT_ID":"2020-028B","EPOCH":"2026-03-10T00:08:18.521088","MEAN_MOTION":15.11086378,"ECCENTRICITY":0.0009258,"INCLINATION":97.5114,"RA_OF_ASC_NODE":76.7595,"ARG_OF_PERICENTER":249.9829,"MEAN_ANOMALY":110.0404,"EPHEMERIS_TYPE":0,"CLASSIFICATION_TYPE":"U","NORAD_CAT_ID":45603,"ELEMENT_SET_NO":999,"REV_AT_EPOCH":31985,"BSTAR":0.00013296102,"MEAN_MOTION_DOT":2.163e-5,"MEAN_MOTION_DDOT":0},{"OBJECT_NAME":"STARLINK-4156","OBJECT_ID":"2022-076BE","EPOCH":"2026-03-09T08:11:56.505408","MEAN_MOTION":15.08845886,"ECCENTRICITY":0.00011392,"INCLINATION":53.2176,"RA_OF_ASC_NODE":75.6803,"ARG_OF_PERICENTER":78.8709,"MEAN_ANOMALY":281.2411,"EPHEMERIS_TYPE":0,"CLASSIFICATION_TYPE":"U","NORAD_CAT_ID":53038,"ELEMENT_SET_NO":999,"REV_AT_EPOCH":20307,"BSTAR":3.8519258e-5,"MEAN_MOTION_DOT":3.25e-6,"MEAN_MOTION_DDOT":0}]
